name,address,latitude,longitude,district,image_url
Crack House, Perum Villa Fajar Indah Blok B No. 6 Tengkerang Selatan 28125,0.4856573,101.4534542,Bukit Raya,"https://lh3.googleusercontent.com/p/AF1QipNFVYe3JrBcRNzLxOSmbx-h6z0yvVePuV6ILRmx=s0"
One Refinery Coffee Shop,Jl. Delima No.6 Delima 28291,0.4772144,101.4047703, Tampan,"https://lh3.googleusercontent.com/p/AF1QipMYXnjnKvFOVHujjln5MCJWqEkbWVuRvQEW9OHZ=s0"
Erber Coffee Nodal,Gg. Keluarga Tengkerang Bar28289,0.4818993,101.4186021,Marpoyan Damai,"https://lh3.googleusercontent.com/p/AF1QipMENDIr4Nn9n3AbAWWlfdlyWK-785rEUiyTGi8F=s0"
Teras Kopi Sumatera,Jl. Sumatera No.29 Simpang Empat 28131,0.512147,101.4476987,Pekanbaru Kota,"https://lh3.googleusercontent.com/p/AF1QipMjTnGHDn6OKomsjzTliHm06sEa1F-XhFBg1dbl=s0"
Leng Coffee,Jl. Arifin Ahmad No.8 Sidomulyo Timur  28125,0.4808459,101.4342264,Marpoyan Damai,"https://lh3.googleusercontent.com/p/AF1QipMo8MCls0lZWz6OjdzPtUyz2RyJDDAg4z46PznQ=s0"
DI'COFFEE,Jl. Bindanak No.6f Tengkerang Utara 28126,0.5047264,101.4605364,Bukit Raya,"https://lh3.googleusercontent.com/p/AF1QipP0ZEkM2tve4JTEIQJRyc9cmGOpoK-ZkKCMUgUL=s0"
Lexo Coffee & Roastery,Jl. Belibis No.4 Kp. Melayu 28124,0.5144302,101.434002,Sukajadi,"https://lh3.googleusercontent.com/p/AF1QipM6xLUw1pwELaEB3RYQDEoIHr8_ghCdtQcAIhJj=s0"
Coffee Toffee Pekanbaru,Jl. Sisingamangaraja Rintis 28156,0.5285297,101.4542792,Lima Puluh,"https://lh3.googleusercontent.com/p/AF1QipOWhN6HBiJiazzknAQjFPWVbaZ5NrKYGaS44XHa=s0"
Major House Pekanbaru,Jl. Elang No.6 Kp. Melayu 28122,0.50927,101.4346275,Sukajadi,"https://lh3.googleusercontent.com/p/AF1QipPIue3E9Z6wF1_VvFuJVZhwKqAXbV99s_QxVCTx=s0"
Sehasta Specialty Coffee,Jl. Arifin Ahmad No.10 Tengkerang Tengah  28125,0.480654,101.4396631,Marpoyan Damai,"https://lh3.googleusercontent.com/p/AF1QipNBub0fsdgLfTDnv5XfCdlO42ciVaJ0s0Vg1xvD=s0"
SWA Coffee Studio,Jl. Tengku Bey II Gang Karisma Simpang Tiga 26264,0.4591837,101.4576363,Bukit Raya,"https://lh3.googleusercontent.com/p/AF1QipNrkJDTAFgmbOy8Eq42_gesQKlLsDye4qXZOslW=s0"
COMA Coffee,Jl. Diponegoro Cinta Raja Kec. Sail 28127,0.5080084,101.4498474,Sail,"https://lh3.googleusercontent.com/p/AF1QipNrkJDTAFgmbOy8Eq42_gesQKlLsDye4qXZOslW=s0"
ORION COFFEE & ROASTERY,Jl. St. Syarif No.125 Kota Tinggi 28155,0.5310049,101.4513407,Pekanbaru Kota,"https://lh3.googleusercontent.com/p/AF1QipOi3S3n--FS8Y2X0KOpDNFnt5XOPdOj4uTGcisJ=s0"
Cerita Kopi Pekanbaru,Jl. Garuda No.23T Labuh Baru Timur 28292,0.5147629,101.4253563,Payung Sekaki,"https://lh3.googleusercontent.com/p/AF1QipPXchCxnFcWKZVhi6pX72m0QDXJzV7WlYvSi8CL=s0"
Mocarabica Coffee Shop,Jl. Melur No.5 Sidomulyo Ba 28294,0.4632697,101.4084869,Tampan,"https://lh3.googleusercontent.com/p/AF1QipNBFKAJpZC9_n0CPC_euEi9gJPniWRzvFlsn7nQ=s0"
Aks√©n Coffee,Jl. Baru Jl. Arifin Ahmad Sidomulyo Tim  28125,0.478567,101.4399628,Marpoyan Damai,"https://lh3.googleusercontent.com/p/AF1QipNBFKAJpZC9_n0CPC_euEi9gJPniWRzvFlsn7nQ=s0"
Roots Coffee Pekanbaru,Jl. Jend. Ahmad Yani No.73 Tanah Datar 28156,0.5210436,101.4407971,Pekanbaru Kota,"https://lh3.googleusercontent.com/p/AF1QipP60hV15ecuABtfq2l5RNYFV8U3dWe52ZQeoTe0=s0"
Nuansa Coffee & Eatery,Jl. Elang No.2 Kp. Melayu 28122,0.509375,101.4350148,Sukajadi,"https://lh3.googleusercontent.com/p/AF1QipM9Ppqnni_lJ1bc-6WY_ZZnRMex5UPC-jvIxTkA=s0"
Er Coffee,Jl. Arifin Ahmad No.45 Sidomulyo Tim  28289,0.4769087,101.4273155,Marpoyan Damai,"https://lh3.googleusercontent.com/p/AF1QipPO98sqTAg86QNZdze38GFdflBRnt5s55iTXFtH=s0"
Bestie cafe,Jl. Puyuh Mas No.50 Tengkerang Tengah, 282820.497318,101.451690,Marpoyan Damai,"https://lh3.googleusercontent.com/p/AF1QipNyeWxhe_G__Ydo_2J6kaZjAQdEkNQwpbiH6_2Q=s0"
Lakosa,Wonorejo 28121,0.507213,101.448608,Marpoyan Damai,"https://lh3.googleusercontent.com/p/AF1QipMIpYdKQsmr9JqhCARDIWtKaVDAtW3DlM2TF-MH=s0"
Suar,Jl. Klp. No.4 Wonorejo 28121,0.508007,101.448171,Marpoyan Damai,"https://lh3.googleusercontent.com/p/AF1QipPiBq9ga2b_u5Z-d0f2YjxnchGyvtneSBj4gFdJ=s0"
Pillar Coffee Roastery,Jl. Belimbing No.53 Wonorejo 28122,0.504419,101.440052,Marpoyan Damai,"https://lh3.googleusercontent.com/p/AF1QipM-hFSRG7cJ4_ioeeVfJgSY30aAP1-dgJXhKeKK=s0"
Atjeh Kupi,Jl. Paus Ujung Tengkerang Tengah 28125,0.482152,101.436766,Marpoyan Damai,"https://lh3.googleusercontent.com/p/AF1QipN9ts8CnVxJcqreAuAP00L96N2tfzqOXRAajWwb=s0"
Virza Cafe & Roastery,Jl. Arifin Ahmad Tengkerang Tengah 28125,0.481300,101.438011,Marpoyan Damai,"https://lh3.googleusercontent.com/p/AF1QipOk6i0PsJPKeTe5jRWN2-zuE8knBB_QQFdTMK71=s0"
